{"type":"FeatureCollection","features":[{"type":"Feature","properties":{"name":"Maharashtra","source":"OpenStreetMap via Nominatim (ODbL)"},"geometry":{"type":"MultiPolygon","coordinates":[[[[72.6526112,19.8322743],[72.6837766,19.8042385],[72.7161831,19.572399],[72.7665496,19.4789428],[72.7583957,19.3823586],[72.8253758,19.3098524],[72.7792626,19.2773723],[72.7828655,19.1675913],[72.8247284,19.1016042],[72.818173,19.0416766],[72.8368476,19.0490538],[72.7921486,18.9499208],[72.823889,18.9375857],[72.804392,18.9092333],[72.8403904,18.9208099],[72.8607166,19.0004597],[72.9576221,19.0262926],[72.9800504,19.122214],[73.0203285,19.0019384],[72.907103,18.8980115],[72.9400517,18.8483155],[72.9775332,18.8626788],[72.9794211,18.819894],[72.9720068,18.795493],[72.9438186,18.8256223],[72.8639567,18.7923291],[72.859692,18.6899926],[72.929451,18.5391395],[72.8988737,18.4723944],[72.9152083,18.3568982],[73.0772124,18.2382911],[72.9796994,18.2454259],[72.9420733,18.2850812],[72.9909271,18.0589564],[73.1317109,17.7270433],[73.1179485,17.6764705],[73.1617033,17.5909484],[73.14215,17.5483909],[73.1953114,17.4414658],[73.1799558,17.3871631],[73.234705,17.3187488],[73.2025695,17.2849329],[73.2832932,17.1006739],[73.2557416,17.0289042],[73.2912648,16.9885123],[73.2771161,16.8921194],[73.3511209,16.6131227],[73.3160645,16.5278025],[73.4689879,16.0466074],[73.5030654,15.9529555],[73.5885233,15.9081213],[73.667525,15.7323869],[73.7840509,15.7261804],[73.8530608,15.7976823],[73.8918328,15.7487854],[73.9385891,15.7434984],[73.9613557,15.6419857],[74.0156007,15.6081989],[74.1009593,15.6414485],[74.1340684,15.7265418],[74.2245596,15.7854709],[74.2562264,15.7435458],[74.3689277,15.78648],[74.3624395,15.873249],[74.4069614,15.8542117],[74.3958997,15.8976268],[74.4623998,16.0476922],[74.3818835,16.0344575],[74.3722597,16.0769203],[74.4120236,16.1017458],[74.4829394,16.0883655],[74.4909676,16.1133421],[74.506578,16.1891636],[74.4775873,16.2475908],[74.3254974,16.2872856],[74.3211066,16.3798456],[74.3620774,16.3918786],[74.2925495,16.5033902],[74.2488528,16.4958081],[74.278387,16.5026712],[74.2734534,16.5468567],[74.3081098,16.5014165],[74.3177607,16.5473705],[74.3573828,16.5584477],[74.3831635,16.526953],[74.3984864,16.5824328],[74.4678444,16.6055265],[74.4704818,16.6471293],[74.5442679,16.6340711],[74.5738365,16.5537739],[74.6882678,16.6094003],[74.6606151,16.6308085],[74.6914744,16.7164393],[74.9222821,16.771485],[74.9030558,16.8624086],[74.9628692,16.8794189],[74.9361529,16.945174],[75.0743007,16.9505749],[75.1355859,16.8749712],[75.2144196,16.8419542],[75.2844434,16.8803109],[75.2831054,16.9552401],[75.4663753,16.9891588],[75.5099617,16.9516821],[75.5665514,16.9676916],[75.5675645,17.010308],[75.6719113,16.9630942],[75.6691003,17.038349],[75.647209,17.0330327],[75.6783486,17.0628476],[75.6738885,17.1136929],[75.6267464,17.1627507],[75.6622922,17.2082474],[75.657386,17.270689],[75.6036615,17.3063115],[75.5775261,17.3758287],[75.6142187,17.3947293],[75.6320822,17.4751325],[75.6868675,17.4121836],[75.7273603,17.4193204],[75.7859756,17.3726654],[75.8186129,17.4165437],[75.8567405,17.3868817],[75.8782505,17.4183782],[75.923997,17.3261813],[76.0171859,17.3532362],[76.0720567,17.3357416],[76.1182809,17.3715076],[76.1641574,17.306291],[76.1758733,17.3572947],[76.2387442,17.3799857],[76.2752652,17.3408686],[76.3370633,17.3556153],[76.3768244,17.315653],[76.4089036,17.3712209],[76.3645935,17.389303],[76.3709235,17.4369467],[76.3331151,17.4536099],[76.3742923,17.4975122],[76.3477277,17.4947699],[76.3651084,17.5303758],[76.3309907,17.5901533],[76.4184522,17.6045526],[76.5410587,17.7614875],[76.5858765,17.707088],[76.6109251,17.7682999],[76.698485,17.6949102],[76.7131239,17.7742211],[76.7811978,17.8149948],[76.7411909,17.8948665],[76.7912501,17.8742482],[76.916269,17.9157523],[76.9121907,18.017681],[76.9623485,18.0905813],[76.9179532,18.1241137],[76.9495927,18.1776437],[77.0999356,18.1589493],[77.1708206,18.2758294],[77.2112043,18.2802504],[77.2399755,18.4089311],[77.3165416,18.4440315],[77.355572,18.4493936],[77.4077128,18.3973547],[77.3818641,18.3087637],[77.4240558,18.3088208],[77.4640262,18.2638563],[77.5724684,18.3028019],[77.5248165,18.3660741],[77.5432023,18.4443982],[77.5808933,18.4441564],[77.5488429,18.467258],[77.6020281,18.4765382],[77.5961183,18.5372708],[77.7235581,18.5534552],[77.7342812,18.6763302],[77.7601146,18.7077161],[77.7928376,18.6963546],[77.8488851,18.8077009],[77.9479762,18.8304342],[77.8817438,18.9067768],[77.8426951,18.9102158],[77.8576558,18.9488369],[77.8173604,18.9477638],[77.7652833,19.0269396],[77.8107138,19.1047537],[77.8468326,19.0879873],[77.8557209,19.2067367],[77.9036614,19.2586885],[77.8762122,19.3071553],[77.9600226,19.3350417],[78.0558131,19.2384629],[78.1594325,19.2372631],[78.1931696,19.431926],[78.3094653,19.4643328],[78.27461,19.5524468],[78.3061124,19.6009645],[78.2641139,19.6673352],[78.3292422,19.7092822],[78.3639821,19.7849201],[78.3371277,19.8384388],[78.2965262,19.8431297],[78.3213577,19.9172962],[78.4237039,19.8176432],[78.4991651,19.7933174],[78.5499179,19.8240726],[78.8405776,19.7619138],[78.8523552,19.6582508],[78.9533369,19.6560219],[78.972016,19.5872153],[78.9413407,19.5634189],[79.083893,19.5341145],[79.1916304,19.4611101],[79.2410446,19.6014527],[79.3697919,19.571799],[79.4718569,19.5015338],[79.5309783,19.5524902],[79.6028548,19.5157598],[79.6291818,19.5743703],[79.7533434,19.6077779],[79.8146537,19.5756184],[79.9446263,19.4702786],[79.9766354,19.394933],[79.9217538,19.2135661],[79.9439864,19.1760461],[79.8607282,19.1033456],[79.8722742,19.0438673],[79.941395,19.0335292],[79.9616693,18.8709478],[79.9202633,18.8118687],[80.1055129,18.6890222],[80.2468436,18.7014936],[80.2675494,18.7188921],[80.2441803,18.7570259],[80.3441206,18.8135772],[80.2726376,18.983038],[80.3391337,19.0999986],[80.3333616,19.1454115],[80.3915408,19.1835984],[80.3875883,19.2329923],[80.4559813,19.2776101],[80.4807102,19.3355012],[80.572408,19.4023627],[80.6055382,19.3162164],[80.6853532,19.3279504],[80.6892371,19.2882588],[80.7497906,19.2879348],[80.8510923,19.361721],[80.8101725,19.4215112],[80.8817339,19.4518229],[80.8961105,19.4921218],[80.8366084,19.5639957],[80.6729936,19.6097244],[80.6737661,19.6932637],[80.5467367,19.7716307],[80.5226612,19.8302191],[80.4727935,19.8164118],[80.49129,19.7738519],[80.4054164,19.7935585],[80.504508,19.870746],[80.4120683,19.922197],[80.4429245,19.9491465],[80.5230903,19.9336551],[80.5548476,20.079694],[80.5521441,20.1183534],[80.5113101,20.1405655],[80.4054165,20.1457831],[80.3969621,20.2337712],[80.6210661,20.3406836],[80.5918622,20.3929455],[80.6237054,20.5907984],[80.5825603,20.6083634],[80.50439,20.5835972],[80.481441,20.619269],[80.5864656,20.6887908],[80.55282,20.7614812],[80.5452132,20.9180318],[80.4649615,20.9289751],[80.426681,21.0054759],[80.45228,21.0386647],[80.4407573,21.0992749],[80.4631376,21.1734472],[80.6134057,21.2266018],[80.6811368,21.3127847],[80.493354,21.3973663],[80.4088134,21.3794625],[80.4143095,21.4562464],[80.3726409,21.5264277],[80.2658819,21.6189853],[80.1902362,21.6310919],[80.071677,21.5564642],[79.9958756,21.533842],[79.9395111,21.5559539],[79.8898981,21.5184172],[79.7436685,21.6019249],[79.5416434,21.542947],[79.4869028,21.6763715],[79.239649,21.7207309],[79.2178898,21.6493068],[79.156656,21.6602761],[79.1038392,21.6029785],[78.985364,21.6161166],[78.9290554,21.5921204],[78.9247367,21.4869357],[78.7116262,21.469875],[78.5238671,21.5258665],[78.4505086,21.4962304],[78.4126661,21.6055272],[78.3728893,21.6134621],[78.3682309,21.5774768],[78.2724732,21.5907002],[78.1746221,21.5480359],[78.1635495,21.4925128],[77.9217186,21.3834187],[77.8049789,21.409264],[77.7232904,21.3616704],[77.6967579,21.3901461],[77.5885964,21.3631545],[77.5359636,21.4176487],[77.497317,21.3754418],[77.4224732,21.5320745],[77.610383,21.5418699],[77.5774607,21.554692],[77.5464971,21.6964704],[77.4790955,21.7699855],[77.2951499,21.7582251],[77.2073232,21.690712],[77.1907405,21.7210365],[77.0736969,21.7194782],[76.9054774,21.5996843],[76.7972642,21.5947438],[76.7755079,21.4570828],[76.6217763,21.3322707],[76.6626792,21.2806939],[76.6244402,21.1871193],[76.4957086,21.1921443],[76.4458246,21.1065115],[76.3663077,21.0760617],[76.1680792,21.0793894],[76.1203741,21.1553039],[76.1743842,21.1870124],[76.1007893,21.3641918],[75.8805601,21.3929889],[75.3117766,21.3899076],[75.1258301,21.4492612],[75.0491469,21.5661512],[74.8975405,21.6286263],[74.782703,21.6107166],[74.5823097,21.6649413],[74.512954,21.7194656],[74.5223632,21.9021998],[74.4407256,21.9761453],[74.4287432,22.0286899],[74.2836044,21.9342109],[74.1499219,21.9526462],[73.8086629,21.8374997],[73.8353133,21.7496546],[73.891468,21.6925633],[73.884902,21.6534396],[73.78492,21.6308219],[73.8509345,21.5001927],[74.0554261,21.5571404],[74.1755032,21.5692736],[74.195137,21.5335496],[74.2951941,21.568196],[74.3283677,21.5519516],[74.2828774,21.4836411],[74.0513062,21.4540273],[74.0318012,21.4183748],[73.9518285,21.3954808],[73.9429343,21.3063677],[73.8336933,21.2699795],[73.8124609,21.1739074],[73.6498332,21.1419295],[73.5850954,21.1713262],[73.6181187,21.1212743],[73.7388611,21.1103651],[73.7304711,21.0867224],[73.7692237,21.0676414],[73.8077616,21.0849205],[73.7955468,21.0447229],[73.9045465,20.9712378],[73.8881802,20.933607],[73.9392436,20.8374694],[73.9371474,20.7378524],[73.8171869,20.6948631],[73.83681,20.6254393],[73.7552762,20.571004],[73.6575848,20.5647586],[73.6088732,20.6287792],[73.4837776,20.6703267],[73.4578487,20.7163172],[73.3957918,20.6524752],[73.4929937,20.5396939],[73.3802712,20.3783831],[73.4099176,20.3673498],[73.4247315,20.2882681],[73.4077263,20.1957293],[73.2962295,20.2080863],[73.1811426,20.049351],[73.1347971,20.0860762],[73.0325711,20.0770286],[73.0117357,20.1289511],[72.972629,20.1142632],[72.9585206,20.2115725],[72.8385186,20.2088238],[72.8244102,20.1433858],[72.7525913,20.1308047],[72.7097994,20.0626281],[72.7198845,19.9820053],[72.6751667,19.9393536],[72.6526112,19.8322743]],[[74.265697,15.8273185],[74.3115236,15.8027773],[74.2704298,15.7944838],[74.265697,15.8273185]],[[77.268393,18.4546658],[77.2727536,18.472778],[77.3012422,18.4634708],[77.268393,18.4546658]]],[[[72.7165478,19.5444176],[72.7180392,19.5447487],[72.7172345,19.5454893],[72.7165478,19.5444176]]],[[[72.7247339,19.532254],[72.7262583,19.5323893],[72.7259248,19.5329517],[72.7247339,19.532254]]],[[[72.725654,19.4665585],[72.7320135,19.458095],[72.7313508,19.4676521],[72.725654,19.4665585]]],[[[72.7568643,19.2679615],[72.7588713,19.2685931],[72.7582352,19.2696542],[72.7568643,19.2679615]]],[[[72.7614663,19.2815143],[72.7620264,19.2802983],[72.7625345,19.2809932],[72.7614663,19.2815143]]],[[[72.7624869,19.3370555],[72.7627999,19.3366164],[72.763349,19.3373278],[72.7624869,19.3370555]]],[[[72.7635375,19.2856891],[72.7648614,19.286111],[72.7643296,19.2864367],[72.7635375,19.2856891]]],[[[72.7732289,19.1334844],[72.7738226,19.1330445],[72.7735153,19.1337262],[72.7732289,19.1334844]]],[[[72.7802821,19.1337619],[72.7837809,19.1306028],[72.7823742,19.1352767],[72.7802821,19.1337619]]],[[[72.7905822,19.3206051],[72.7966976,19.3194559],[72.7932966,19.3221946],[72.7905822,19.3206051]]],[[[72.807725,19.0749755],[72.8103689,19.074679],[72.8093241,19.0797001],[72.807725,19.0749755]]],[[[72.8117287,18.7050333],[72.8145075,18.7030517],[72.8131074,18.7062527],[72.8117287,18.7050333]]],[[[72.8405142,18.7041619],[72.8410479,18.7042254],[72.8412142,18.7047945],[72.8405142,18.7041619]]],[[[72.8411311,18.70577],[72.8421852,18.7063061],[72.8425822,18.7082166],[72.8411311,18.70577]]],[[[72.8635275,18.6338273],[72.8640988,18.6325895],[72.8657752,18.6381277],[72.8635275,18.6338273]]],[[[72.8982423,18.9593431],[72.9052828,18.9578406],[72.9007834,18.9637206],[72.8982423,18.9593431]]],[[[72.9150119,18.5347638],[72.9154946,18.5348653],[72.9152764,18.5356576],[72.9150119,18.5347638]]],[[[72.9247946,18.960182],[72.9370603,18.9589923],[72.9384653,18.9716914],[72.9247946,18.960182]]],[[[72.9310816,18.3211475],[72.9335493,18.3219724],[72.9324657,18.3229349],[72.9310816,18.3211475]]],[[[72.9629408,18.2996802],[72.9659827,18.298871],[72.9641814,18.300931],[72.9629408,18.2996802]]],[[[73.0825728,17.818001],[73.0832702,17.8143366],[73.085137,17.8158075],[73.0825728,17.818001]]],[[[73.0889136,17.8086649],[73.089568,17.8087364],[73.089737,17.8109019],[73.0889136,17.8086649]]],[[[73.4422994,16.1021805],[73.4435686,16.1002318],[73.4439597,16.1011055],[73.4422994,16.1021805]]],[[[73.4443284,16.098699],[73.4447813,16.098365],[73.4446128,16.0987293],[73.4443284,16.098699]]],[[[73.4556815,15.8886478],[73.4565961,15.8880055],[73.4559256,15.8893057],[73.4556815,15.8886478]]],[[[73.4562681,15.9874819],[73.4565159,15.987472],[73.4564382,15.9876347],[73.4562681,15.9874819]]],[[[73.4570109,16.0408361],[73.4602015,16.039272],[73.4591849,16.0457109],[73.4570109,16.0408361]]],[[[73.4573097,15.9949961],[73.4573658,15.9949081],[73.4574443,15.994926],[73.4573097,15.9949961]]],[[[73.4579848,15.9938367],[73.4580371,15.993772],[73.4581362,15.9938996],[73.4579848,15.9938367]]],[[[73.4585273,15.8872419],[73.4589136,15.8868549],[73.4588814,15.8874173],[73.4585273,15.8872419]]],[[[73.4601017,16.0233408],[73.4601734,16.0232063],[73.4602294,16.0233778],[73.4601017,16.0233408]]],[[[73.4611934,16.0521958],[73.4615877,16.0518684],[73.461467,16.0525901],[73.4611934,16.0521958]]],[[[73.4618962,15.8895249],[73.4640071,15.8869813],[73.4635484,15.889285],[73.4618962,15.8895249]]],[[[73.4624784,15.988334],[73.4625532,15.98821],[73.4626785,15.9884113],[73.4624784,15.988334]]],[[[73.462792,15.9302934],[73.4631944,15.9299942],[73.4629476,15.9304326],[73.462792,15.9302934]]],[[[73.4630656,15.9324393],[73.4635323,15.9319802],[73.4637523,15.9324599],[73.4630656,15.9324393]]],[[[73.463484,16.0461846],[73.4638542,16.0456356],[73.4639856,16.0458831],[73.463484,16.0461846]]],[[[73.4639078,16.0478911],[73.4647554,16.0469528],[73.4648037,16.0476642],[73.4639078,16.0478911]]],[[[73.4650773,15.8991445],[73.4655064,15.8985512],[73.4653562,15.8993457],[73.4650773,15.8991445]]],[[[73.4656942,15.8955743],[73.4663218,15.8937066],[73.4671318,15.8941968],[73.4656942,15.8955743]]],[[[73.4657239,15.9252063],[73.4661861,15.9249104],[73.4660677,15.9254923],[73.4657239,15.9252063]]],[[[73.4792971,15.972001],[73.4795259,15.9717728],[73.4794128,15.9720915],[73.4792971,15.972001]]],[[[73.6489534,15.746018],[73.6512709,15.7458683],[73.6501282,15.7464723],[73.6489534,15.746018]]],[[[73.6522418,15.7460438],[73.6534917,15.7463045],[73.6524188,15.7464672],[73.6522418,15.7460438]]]]}}]}