{"type":"FeatureCollection","features":[{"type":"Feature","properties":{"id":"1","metrics:area":1500,"metrics:perimeter":190.08288703092222},"geometry":{"type":"Polygon","coordinates":[[[72.92191666085891,19.103793694799673],[72.92201731011778,19.10334318685341],[72.92249347794966,19.103258232504334],[72.92249235001809,19.103348548629572],[72.92191666085891,19.103793694799673]]]},"id":"1"},{"type":"Feature","properties":{"id":"2","metrics:area":4250,"metrics:perimeter":255.47831340241507},"geometry":{"type":"Polygon","coordinates":[[[72.92371956348968,19.10399469686572],[72.92344130287253,19.103449584688978],[72.92391972498453,19.103183994199746],[72.924202494975,19.10336784088984],[72.92419911392282,19.1036387895541],[72.92371956348968,19.10399469686572]]]},"id":"2"},{"type":"Feature","properties":{"id":"3","metrics:area":6300,"metrics:perimeter":325.8973349261778},"geometry":{"type":"Polygon","coordinates":[[[72.82995644426654,19.10237128499581],[72.82977822241142,19.101465938172797],[72.8302555841601,19.101290915893276],[72.8306261673041,19.10201788025007],[72.82995644426654,19.10237128499581]]]},"id":"3"},{"type":"Feature","properties":{"id":"4","metrics:area":1650,"metrics:perimeter":166.70548092920544},"geometry":{"type":"Polygon","coordinates":[[[72.92439927252339,19.102828086075682],[72.92430764543867,19.10255606612395],[72.9247849370553,19.10238078925028],[72.92478043048827,19.102742054306514],[72.92439927252339,19.102828086075682]]]},"id":"4"},{"type":"Feature","properties":{"id":"5","metrics:area":4900,"metrics:perimeter":331.09846777467885},"geometry":{"type":"Polygon","coordinates":[[[72.92144951943683,19.103156118975004],[72.9213624112405,19.102522833738274],[72.92117239634075,19.102520688097915],[72.92117691068329,19.102159423862496],[72.9220252073073,19.10271097414767],[72.92192568685923,19.103071166070894],[72.92144951943683,19.103156118975004]]]},"id":"5"},{"type":"Feature","properties":{"id":"6","metrics:area":2650,"metrics:perimeter":206.8825265697938},"geometry":{"type":"Polygon","coordinates":[[[72.92032749090495,19.101698186183988],[72.92004698674987,19.101333702174212],[72.92052540691803,19.10106812039288],[72.9207097762316,19.10152184675644],[72.92032749090495,19.101698186183988]]]},"id":"6"},{"type":"Feature","properties":{"id":"7","metrics:area":16700,"metrics:perimeter":550.2858582766194},"geometry":{"type":"Polygon","coordinates":[[[72.92374098122916,19.10227868910414],[72.92261668083258,19.101001401131736],[72.92300347249558,19.100463791831586],[72.92347512279777,19.100740098912638],[72.92431666042907,19.101833536198946],[72.92421827246265,19.102103413677042],[72.92374098122916,19.10227868910414]]]},"id":"7"},{"type":"Feature","properties":{"id":"8","metrics:area":30700,"metrics:perimeter":1022.9746933891811},"geometry":{"type":"Polygon","coordinates":[[[72.83053940984715,19.101384585513852],[72.83035058528304,19.10129203556865],[72.83035882972959,19.100659860432764],[72.8307482530258,19.09994185237647],[72.83122560947625,19.09976682701993],[72.83085031795673,19.099401107065773],[72.82980649546137,19.099298481234946],[72.82971502952732,19.0990264292524],[72.83209002642788,19.099054410238846],[72.83217914301977,19.099507083141916],[72.8316982571651,19.099953043627416],[72.83140030696083,19.10094310558829],[72.83053940984715,19.101384585513852]]]},"id":"8"},{"type":"Feature","properties":{"id":"9","metrics:area":8750,"metrics:perimeter":392.16361657071764},"geometry":{"type":"Polygon","coordinates":[[[72.925941917951,19.101038892625535],[72.92585366675878,19.10049592421464],[72.92633432797209,19.100049693452096],[72.9270004978193,19.099966866349416],[72.92708987797091,19.100419518149202],[72.925941917951,19.101038892625535]]]},"id":"9"},{"type":"Feature","properties":{"id":"10","metrics:area":9100,"metrics:perimeter":488.16225102535975},"geometry":{"type":"Polygon","coordinates":[[[72.82914503088858,19.09901970926487],[72.82915210059542,19.098477845166492],[72.82944298942633,19.098029651750952],[72.83067562484949,19.098224828336626],[72.83057709300866,19.098494641319892],[72.83010209537159,19.09848904382538],[72.83000945145355,19.09830730270342],[72.82952502995451,19.099024189452287],[72.82914503088858,19.09901970926487]]]},"id":"10"},{"type":"Feature","properties":{"id":"11","metrics:area":10700,"metrics:perimeter":502.6288128268532},"geometry":{"type":"Polygon","coordinates":[[[72.92205453699748,19.100362755119242],[72.92111688774848,19.099358552820508],[72.9211259149624,19.098636024112416],[72.92141093066118,19.09863924194275],[72.92196855480266,19.099639153779822],[72.92225244454025,19.09973268661545],[72.92234181146443,19.100185339499802],[72.92205453699748,19.100362755119242]]]},"id":"11"},{"type":"Feature","properties":{"id":"12","metrics:area":14500,"metrics:perimeter":586.49254432104},"geometry":{"type":"Polygon","coordinates":[[[72.92509474073448,19.100397043583932],[72.92481422726438,19.100032566014697],[72.92491373911007,19.099672371654773],[72.9252948895143,19.09958633808384],[72.92529826801011,19.09931538911179],[72.92635233740371,19.09860463128721],[72.92663060157639,19.099149739463783],[72.92615332103732,19.099325022242652],[72.92586154810897,19.099863709771043],[72.92509474073448,19.100397043583932]]]},"id":"12"},{"type":"Feature","properties":{"id":"13","metrics:area":13500,"metrics:perimeter":554.7471895230487},"geometry":{"type":"Polygon","coordinates":[[[72.92425207717227,19.099393926166268],[72.92397382084846,19.098848815103526],[72.92569743174425,19.09778429295309],[72.9258806872361,19.0983283316431],[72.92425207717227,19.099393926166268]]]},"id":"13"},{"type":"Feature","properties":{"id":"14","metrics:area":3550,"metrics:perimeter":240.88849530344567},"geometry":{"type":"Polygon","coordinates":[[[72.92607745184955,19.09778857368083],[72.92589532180158,19.097154218772047],[72.92637147064497,19.097069252470956],[72.92655472786858,19.097613290662803],[72.92607745184955,19.09778857368083]]]},"id":"14"},{"type":"Feature","properties":{"id":"15","metrics:area":15500,"metrics:perimeter":539.2787076364853},"geometry":{"type":"Polygon","coordinates":[[[72.92359717995434,19.098573581106763],[72.9232239219667,19.09802739779672],[72.92399297629036,19.09731343864944],[72.92485252336829,19.09696181158513],[72.92504028006455,19.097144585495457],[72.9248435131807,19.097684342137804],[72.92359717995434,19.098573581106763]]]},"id":"15"},{"type":"Feature","properties":{"id":"16","metrics:area":900,"metrics:perimeter":125.5708402582784},"geometry":{"type":"Polygon","coordinates":[[[72.92561593699762,19.096699426285785],[72.92542818005874,19.096516652942345],[72.925430431861,19.096336020219873],[72.92580932290385,19.096430617570032],[72.92561593699762,19.096699426285785]]]},"id":"16"},{"type":"Feature","properties":{"id":"17","metrics:area":13250,"metrics:perimeter":547.8518548759171},"geometry":{"type":"Polygon","coordinates":[[[72.92284841157587,19.097661846334702],[72.92276355343147,19.09684792877027],[72.92391599944928,19.095867307136082],[72.92438313342913,19.096504876126875],[72.92333019813356,19.09712530705002],[72.92284841157587,19.097661846334702]]]},"id":"17"},{"type":"Feature","properties":{"id":"18","metrics:area":9000,"metrics:perimeter":446.2737196310736},"geometry":{"type":"Polygon","coordinates":[[[72.9219107706328,19.096657648794224],[72.92172527402107,19.09629423976111],[72.92220254899358,19.096118968033988],[72.92211205582781,19.095756631315805],[72.92268771444833,19.095311481491297],[72.92305871108559,19.096038297756127],[72.9219107706328,19.096657648794224]]]},"id":"18"},{"type":"Feature","properties":{"id":"19","metrics:area":2400,"metrics:perimeter":198.93435239886668},"geometry":{"type":"Polygon","coordinates":[[[72.92448489605523,19.09596404913904],[72.92439439784813,19.095601713075517],[72.92477779124096,19.095335047021916],[72.9249621678837,19.095788769883583],[72.92448489605523,19.09596404913904]]]},"id":"19"},{"type":"Feature","properties":{"id":"20","metrics:area":1000,"metrics:perimeter":130.52721803891757},"geometry":{"type":"Polygon","coordinates":[[[72.924023395866,19.094874899011817],[72.92383676934989,19.094601808082444],[72.92393402562078,19.09442224653789],[72.92421678174155,19.094606091962856],[72.924023395866,19.094874899011817]]]},"id":"20"},{"type":"Feature","properties":{"id":"21","metrics:area":5200,"metrics:perimeter":307.85891162962935},"geometry":{"type":"Polygon","coordinates":[[[72.93383903632443,19.092546395606696],[72.93365351604126,19.0921829964208],[72.93336850917856,19.09217979857242],[72.93366024295447,19.091641095160007],[72.93394524894784,19.09164429247046],[72.93413189031872,19.091917374482115],[72.93412404389946,19.092549592786224],[72.93383903632443,19.092546395606696]]]},"id":"21"},{"type":"Feature","properties":{"id":"22","metrics:area":1700,"metrics:perimeter":164.92422502470643},"geometry":{"type":"Polygon","coordinates":[[[72.93204857606244,19.091352018383617],[72.93195806245036,19.090989684553172],[72.93233919036429,19.09090363409579],[72.93242970479878,19.0912659678157],[72.93204857606244,19.091352018383617]]]},"id":"22"},{"type":"Feature","properties":{"id":"23","metrics:area":2200,"metrics:perimeter":243.3957999086919},"geometry":{"type":"Polygon","coordinates":[[[72.93367705924175,19.090286341858754],[72.93358654233725,19.08992400851075],[72.93320653837031,19.0899197449616],[72.93330602417765,19.089559543410843],[72.9338726662859,19.089836888749975],[72.93367705924175,19.090286341858754]]]},"id":"23"},{"type":"Feature","properties":{"id":"24","metrics:area":1050,"metrics:perimeter":134.7603286813174},"geometry":{"type":"Polygon","coordinates":[[[72.84733294372832,19.088574859436008],[72.84714645738845,19.088301703395242],[72.84724378771011,19.08812218989528],[72.84752760414862,19.088215832165307],[72.84733294372832,19.088574859436008]]]},"id":"24"},{"type":"Feature","properties":{"id":"25","metrics:area":1300,"metrics:perimeter":153.15271402935252},"geometry":{"type":"Polygon","coordinates":[[[72.92040853928386,19.087607803647224],[72.92022192599022,19.087334710184468],[72.92032030897286,19.0870648342265],[72.92060417679548,19.08715836760486],[72.92040853928386,19.087607803647224]]]},"id":"25"},{"type":"Feature","properties":{"id":"26","metrics:area":2600,"metrics:perimeter":211.2310562561766},"geometry":{"type":"Polygon","coordinates":[[[72.93524860272983,19.08614880568323],[72.93525532216377,19.08560690352121],[72.93563643646219,19.08552084486896],[72.93562859858494,19.086153064212986],[72.93524860272983,19.08614880568323]]]},"id":"26"},{"type":"Feature","properties":{"id":"27","metrics:area":1500,"metrics:perimeter":160},"geometry":{"type":"Polygon","coordinates":[[[72.83991375830631,19.074577918841115],[72.83991727081361,19.074306984143192],[72.8403922025938,19.074312549549493],[72.84038869085732,19.074583484332408],[72.83991375830631,19.074577918841115]]]},"id":"27"},{"type":"Feature","properties":{"id":"28","metrics:area":1350,"metrics:perimeter":154.12774721556144},"geometry":{"type":"Polygon","coordinates":[[[72.85484764797434,19.073126467902902],[72.85466116303994,19.072853319536094],[72.85513725777906,19.072768534075195],[72.85522991933038,19.072950264315825],[72.85484764797434,19.073126467902902]]]},"id":"28"},{"type":"Feature","properties":{"id":"29","metrics:area":900,"metrics:perimeter":126.05551275463989},"geometry":{"type":"Polygon","coordinates":[[[72.92742267526414,19.073685817047558],[72.9276160278212,19.0734170030061],[72.92780601030162,19.07341913886756],[72.92780264081642,19.07369008903121],[72.92742267526414,19.073685817047558]]]},"id":"29"},{"type":"Feature","properties":{"id":"30","metrics:area":7700,"metrics:perimeter":429.6593885387597},"geometry":{"type":"Polygon","coordinates":[[[72.92684598490047,19.0742213075813],[72.92666274446385,19.07367727073426],[72.9260961688906,19.073399909076574],[72.92619565607933,19.07303971128541],[72.92723381600248,19.073593364074835],[72.92741593488905,19.0742277172188],[72.92684598490047,19.0742213075813]]]},"id":"30"},{"type":"Feature","properties":{"id":"31","metrics:area":4500,"metrics:perimeter":313.84627496722135},"geometry":{"type":"Polygon","coordinates":[[[72.85333368050404,19.072657212595786],[72.85314952571198,19.07220343822654],[72.85429284650463,19.07194577261303],[72.85361863925453,19.072660530977448],[72.85333368050404,19.072657212595786]]]},"id":"31"},{"type":"Feature","properties":{"id":"32","metrics:area":2600,"metrics:perimeter":272.97231687756454},"geometry":{"type":"Polygon","coordinates":[[[72.82113136237665,19.0724600239251],[72.8213319573206,19.07164947511821],[72.82152546645248,19.071380788802017],[72.82151366017035,19.07228389367425],[72.82113136237665,19.0724600239251]]]},"id":"32"},{"type":"Feature","properties":{"id":"33","metrics:area":19500,"metrics:perimeter":612.7407522083789},"geometry":{"type":"Polygon","coordinates":[[[72.92352915968492,19.073551667652776],[72.92344429812941,19.072737749264284],[72.92392150160096,19.07256246609875],[72.92430933856922,19.0719345293223],[72.9246892993783,19.07193880734358],[72.92524237349237,19.073299971666653],[72.92419747261295,19.073288207553695],[72.92352915968492,19.073551667652776]]]},"id":"33"},{"type":"Feature","properties":{"id":"34","metrics:area":1800,"metrics:perimeter":188.85661164744508},"geometry":{"type":"Polygon","coordinates":[[[72.83171106587623,19.06978470676896],[72.83152462459047,19.06951153898859],[72.83152932475534,19.069150294534374],[72.8319092563015,19.069154763079133],[72.83171106587623,19.06978470676896]]]},"id":"34"},{"type":"Feature","properties":{"id":"35","metrics:area":2700,"metrics:perimeter":227.14792619456694},"geometry":{"type":"Polygon","coordinates":[[[72.92888458915277,19.070721378711944],[72.92879521154346,19.070268727467386],[72.9295551278358,19.070277263527057],[72.92955288381218,19.070457897232384],[72.92888458915277,19.070721378711944]]]},"id":"35"},{"type":"Feature","properties":{"id":"36","metrics:area":29900,"metrics:perimeter":937.1910388631223},"geometry":{"type":"Polygon","coordinates":[[[72.92716241731488,19.07169564531916],[72.92659584714593,19.071418285701537],[72.92679032148729,19.071059155656645],[72.92670432027998,19.07033555386771],[72.92718151405538,19.07016026123843],[72.92737710859815,19.069710813537462],[72.92775706508027,19.069715084759668],[72.92794030619915,19.070259120662037],[72.92822415186218,19.070352640147338],[72.92821629258842,19.070984857560283],[72.92850912046445,19.070355842432093],[72.92887448732462,19.071534229971185],[72.92839953621889,19.071528893209692],[72.9282140470246,19.071165491098313],[72.92716241731488,19.07169564531916]]]},"id":"36"},{"type":"Feature","properties":{"id":"37","metrics:area":600,"metrics:perimeter":104.7213595499958},"geometry":{"type":"Polygon","coordinates":[[[72.93003456266781,19.069921329445567],[72.93013179538997,19.069741762185213],[72.93041676329307,19.06974496142398],[72.93031953086023,19.06992452886351],[72.93003456266781,19.069921329445567]]]},"id":"37"},{"type":"Feature","properties":{"id":"38","metrics:area":1700,"metrics:perimeter":177.62297840550298},"geometry":{"type":"Polygon","coordinates":[[[72.94448750292761,19.068908749661368],[72.94449307200263,19.06845716105236],[72.94487414333103,19.068371079000265],[72.94496690564507,19.068552773298507],[72.94448750292761,19.068908749661368]]]},"id":"38"},{"type":"Feature","properties":{"id":"39","metrics:area":11350,"metrics:perimeter":419.08262922764027},"geometry":{"type":"Polygon","coordinates":[[[72.92975632568265,19.069376228361214],[72.92900539120082,19.06864515884379],[72.92900875777171,19.068374208325338],[72.92948706581817,19.068108592061563],[72.93014637642436,19.068567642510747],[72.9302323926445,19.069291244148612],[72.92975632568265,19.069376228361214]]]},"id":"39"},{"type":"Feature","properties":{"id":"40","metrics:area":700,"metrics:perimeter":134.97365151260954},"geometry":{"type":"Polygon","coordinates":[[[72.82090609110097,19.060624857285916],[72.8207173167343,19.060532302194805],[72.82043356537947,19.060438624499678],[72.82090963171007,19.060353925602364],[72.82090609110097,19.060624857285916]]]},"id":"40"},{"type":"Feature","properties":{"id":"41","metrics:area":1200,"metrics:perimeter":140},"geometry":{"type":"Polygon","coordinates":[[[72.82285280147981,19.05703486424366],[72.82285751710644,19.056673621387414],[72.82314244279823,19.056676984151313],[72.82313772778755,19.05703822707608],[72.82285280147981,19.05703486424366]]]},"id":"41"},{"type":"Feature","properties":{"id":"42","metrics:area":2250,"metrics:perimeter":190.99019513592785},"geometry":{"type":"Polygon","coordinates":[[[72.82142817083972,19.057018043491304],[72.82143406920605,19.05656649034707],[72.8219077652331,19.05666240900141],[72.8219030475533,19.057023651629166],[72.82142817083972,19.057018043491304]]]},"id":"42"},{"type":"Feature","properties":{"id":"43","metrics:area":6000,"metrics:perimeter":400.4317580869951},"geometry":{"type":"Polygon","coordinates":[[[72.82238146193325,19.056758326491536],[72.82144114702588,19.056024626542523],[72.82144586543923,19.0556633839871],[72.82173078913767,19.055666748759133],[72.82191484155305,19.056120545031167],[72.82267228260929,19.056310136474924],[72.8226687456712,19.056581068595708],[72.82238146193325,19.056758326491536]]]},"id":"43"},{"type":"Feature","properties":{"id":"44","metrics:area":29500,"metrics:perimeter":1011.6215365857404},"geometry":{"type":"Polygon","coordinates":[[[72.82201217501986,19.05594104511269],[72.8213579686146,19.055120398471352],[72.82136386653829,19.054668845255602],[72.8217437625313,19.054673331464503],[72.82185052932806,19.053771346106004],[72.82297842524424,19.05468790624993],[72.82392463198092,19.05497004440511],[72.82391638440157,19.055602219959926],[72.82353295035071,19.055868670311046],[72.82250119691916,19.0548629229657],[72.82221155791542,19.05522080229198],[72.82248940693101,19.055766030039905],[72.82201217501986,19.05594104511269]]]},"id":"44"},{"type":"Feature","properties":{"id":"45","metrics:area":800,"metrics:perimeter":119.5153275036385},"geometry":{"type":"Polygon","coordinates":[[[72.82146945590773,19.053857170981207],[72.82147181480809,19.053676549659645],[72.82166412034397,19.053498171290155],[72.82175437652683,19.053860535410386],[72.82146945590773,19.053857170981207]]]},"id":"45"},{"type":"Feature","properties":{"id":"46","metrics:area":1750,"metrics:perimeter":173.45230764828105},"geometry":{"type":"Polygon","coordinates":[[[72.95116875761214,19.050917015942133],[72.95117319389658,19.050555742835982],[72.95164920091871,19.05047069706454],[72.9515497858747,19.050830915856597],[72.95116875761214,19.050917015942133]]]},"id":"46"},{"type":"Feature","properties":{"id":"47","metrics:area":24050,"metrics:perimeter":633.7802610949213},"geometry":{"type":"Polygon","coordinates":[[[72.94166189161251,19.051533848686994],[72.9411981385232,19.050625373140704],[72.94149421851775,19.049725374898767],[72.94196799749687,19.049820989874895],[72.94215349921905,19.05018437951503],[72.9426283936914,19.050189675154723],[72.94281389724863,19.050553064290682],[72.94280387476036,19.051365924484333],[72.94261168809885,19.051544441996427],[72.94232897688896,19.05136062898194],[72.94166189161251,19.051533848686994]]]},"id":"47"},{"type":"Feature","properties":{"id":"48","metrics:area":1350,"metrics:perimeter":154.084889114037},"geometry":{"type":"Polygon","coordinates":[[[72.95127260950763,19.0501955242977],[72.95137202461416,19.049835305652486],[72.95175194158799,19.049839523215113],[72.95165363605139,19.050109423831994],[72.95127260950763,19.0501955242977]]]},"id":"48"},{"type":"Feature","properties":{"id":"49","metrics:area":2600,"metrics:perimeter":252.47774555921828},"geometry":{"type":"Polygon","coordinates":[[[72.95269286876217,19.0505726106502],[72.95250734262633,19.050209229434657],[72.95251288412298,19.049757637635697],[72.9526995180737,19.050030700446836],[72.95317330731174,19.05012628731137],[72.95269286876217,19.0505726106502]]]},"id":"49"},{"type":"Feature","properties":{"id":"50","metrics:area":800,"metrics:perimeter":115.60623297836548},"geometry":{"type":"Polygon","coordinates":[[[72.95223016324974,19.04957383903058],[72.95213850952075,19.049301829941395],[72.95242455476875,19.04921467355641],[72.95242122984824,19.04948562863952],[72.95223016324974,19.04957383903058]]]},"id":"50"},{"type":"Feature","properties":{"id":"51","metrics:area":1000,"metrics:perimeter":131.2310562561766},"geometry":{"type":"Polygon","coordinates":[[[72.95736789059708,19.048908136506032],[72.957372312962,19.048546861917647],[72.95756227068458,19.048548964485473],[72.95765282780617,19.048911290348855],[72.95736789059708,19.048908136506032]]]},"id":"51"},{"type":"Feature","properties":{"id":"52","metrics:area":37900,"metrics:perimeter":1386.9980476344165},"geometry":{"type":"Polygon","coordinates":[[[72.95364709721319,19.050221873008343],[72.95346378475057,19.04967785575041],[72.95394311113894,19.049321848376525],[72.95279893004195,19.04967048072879],[72.95261562085405,19.049126462912625],[72.95290277364408,19.04894898734285],[72.95299442852465,19.04922099616031],[72.95327936548709,19.049224156803316],[72.95328822797133,19.0485016094868],[72.95376312098098,19.0485068760342],[72.95366481959772,19.048776778137533],[72.95471180045055,19.048607723966725],[72.95452848563527,19.048063707519574],[72.95500448459579,19.04797865224013],[72.95528720644369,19.0481624466543],[72.95509392904712,19.04843129735457],[72.95547384371228,19.048435506959187],[72.9554694172667,19.048796781122476],[72.9551844806426,19.04879362392786],[72.95508618126475,19.049063526980216],[72.95575214099468,19.048980574985958],[72.95584380068182,19.049252582822067],[72.95555554337332,19.0495203817472],[72.95489068842016,19.04951301431771],[72.9544102559422,19.049959342753738],[72.95364709721319,19.050221873008343]]]},"id":"52"},{"type":"Feature","properties":{"id":"53","metrics:area":4650,"metrics:perimeter":303.6650566999049},"geometry":{"type":"Polygon","coordinates":[[[72.9514847447188,19.048391267161605],[72.9514902884121,19.047939675563644],[72.95253615670032,19.047860951822102],[72.9524367456621,19.048221171512267],[72.9514847447188,19.048391267161605]]]},"id":"53"},{"type":"Feature","properties":{"id":"54","metrics:area":13600,"metrics:perimeter":512.8953536357051},"geometry":{"type":"Polygon","coordinates":[[[72.9496734974553,19.048913134909032],[72.94948908952772,19.048459433180103],[72.95092485564162,19.047572075559025],[72.95129478789922,19.048389158357026],[72.9496734974553,19.048913134909032]]]},"id":"54"},{"type":"Feature","properties":{"id":"55","metrics:area":7950,"metrics:perimeter":444.20409452643014},"geometry":{"type":"Polygon","coordinates":[[[72.9564158880597,19.049078257705315],[72.9562325671511,19.048534242410746],[72.95661580026128,19.048267493871414],[72.95652745763213,19.047724530501405],[72.95690847680599,19.047638418374817],[72.95699792643383,19.048091063046744],[72.95680354582767,19.04845023442546],[72.95699239759178,19.048542656196293],[72.95698686859362,19.04899424932223],[72.9564158880597,19.049078257705315]]]},"id":"55"},{"type":"Feature","properties":{"id":"56","metrics:area":1850,"metrics:perimeter":175.71155468592366},"geometry":{"type":"Polygon","coordinates":[[[72.9512075717033,19.047755875750607],[72.95102205145793,19.047392493532964],[72.95149804931975,19.047307447286805],[72.9514925058456,19.047759038917846],[72.9512075717033,19.047755875750607]]]},"id":"56"},{"type":"Feature","properties":{"id":"57","metrics:area":12000,"metrics:perimeter":479.1658497401691},"geometry":{"type":"Polygon","coordinates":[[[72.94930246266318,19.048186367732704],[72.9492163640839,19.047462766692124],[72.94988675624708,19.047018562605682],[72.95036053474516,19.04711415577481],[72.95055270834968,19.04693562884971],[72.95073600892628,19.04747964798229],[72.94930246266318,19.048186367732704]]]},"id":"57"},{"type":"Feature","properties":{"id":"58","metrics:area":3150,"metrics:perimeter":252.56431185781685},"geometry":{"type":"Polygon","coordinates":[[[72.95187352662508,19.04767293744506],[72.95226119669982,19.04704492491815],[72.9526422155769,19.04695882166115],[72.95263889143366,19.04722977684735],[72.9521584607449,19.047676099571255],[72.95187352662508,19.04767293744506]]]},"id":"58"},{"type":"Feature","properties":{"id":"59","metrics:area":1000,"metrics:perimeter":144.72135954999578},"geometry":{"type":"Polygon","coordinates":[[[72.95159967877758,19.04676659153074],[72.95179406768791,19.046407426440055],[72.95207899963373,19.04641058848701],[72.95178963378734,19.046768699849043],[72.95159967877758,19.04676659153074]]]},"id":"59"},{"type":"Feature","properties":{"id":"60","metrics:area":23500,"metrics:perimeter":857.1786294568436},"geometry":{"type":"Polygon","coordinates":[[[72.95728396777804,19.04800389868177],[72.95719341176599,19.047641572724693],[72.95738557945732,19.047463038061835],[72.95643469135725,19.047542841543574],[72.95644132738418,19.047000929891908],[72.95615971204272,19.046726818692918],[72.95739773962154,19.046469532741195],[72.95758216824295,19.04692322845786],[72.95777212414306,19.046925330637574],[72.9576826726739,19.046472686150015],[72.95806368857056,19.046386571303188],[72.95805816314406,19.046838164837148],[72.95843807488882,19.046842368003837],[72.9583386771055,19.047202592159817],[72.95766388199152,19.048008103688826],[72.95728396777804,19.04800389868177]]]},"id":"60"},{"type":"Feature","properties":{"id":"61","metrics:area":16950,"metrics:perimeter":519.9060055446433},"geometry":{"type":"Polygon","coordinates":[[[72.94921747400404,19.047372448494016],[72.94845987323762,19.047183366893712],[72.94856151225842,19.046642513720816],[72.9495212722024,19.04584020488468],[72.95017612635979,19.046660454661566],[72.94921747400404,19.047372448494016]]]},"id":"61"},{"type":"Feature","properties":{"id":"62","metrics:area":1500,"metrics:perimeter":200.32759252836127},"geometry":{"type":"Polygon","coordinates":[[[72.94827991165805,19.046368391747105],[72.9484765272572,19.04582859442598],[72.94885421437829,19.04601345347854],[72.94885199430928,19.04619408985912],[72.948663150444,19.04610166040052],[72.94827991165805,19.046368391747105]]]},"id":"62"},{"type":"Feature","properties":{"id":"63","metrics:area":850,"metrics:perimeter":118.32324037878348},"geometry":{"type":"Polygon","coordinates":[[[72.94904416820366,19.046015564541353],[72.94885643442223,19.045832817094173],[72.94895363114539,19.04565323624031],[72.9492374514949,19.045746720766438],[72.94904416820366,19.046015564541353]]]},"id":"63"},{"type":"Feature","properties":{"id":"64","metrics:area":27650,"metrics:perimeter":653.2046481572465},"geometry":{"type":"Polygon","coordinates":[[[72.9531115650185,19.047415681566903],[72.9530254497785,19.046692080739003],[72.95360528244285,19.045885534565365],[72.95408570399533,19.045439207147105],[72.95465445860005,19.04553584194515],[72.95483445149746,19.04635081377004],[72.95454066321491,19.047070204041137],[72.9531115650185,19.047415681566903]]]},"id":"64"},{"type":"Feature","properties":{"id":"65","metrics:area":3100,"metrics:perimeter":274.6482642371677},"geometry":{"type":"Polygon","coordinates":[[[72.95293490365293,19.046329753573474],[72.9532286969633,19.04561036633201],[72.95370579647887,19.045434995322484],[72.95350919782449,19.045974799867576],[72.95293490365293,19.046329753573474]]]},"id":"65"},{"type":"Feature","properties":{"id":"66","metrics:area":3450,"metrics:perimeter":255.44947674710392},"geometry":{"type":"Polygon","coordinates":[[[72.95284878926154,19.045606152707627],[72.95266880669513,19.0447911798655],[72.95323866543953,19.044797500304895],[72.9531370430641,19.045338357681356],[72.95284878926154,19.045606152707627]]]},"id":"66"},{"type":"Feature","properties":{"id":"67","metrics:area":10200,"metrics:perimeter":425.8482535757276},"geometry":{"type":"Polygon","coordinates":[[[72.95198623901969,19.04622889778851],[72.95181291064787,19.044872014283197],[72.9523838774074,19.044788018987024],[72.95265551158658,19.045875000831348],[72.95236614793286,19.046233113320113],[72.95198623901969,19.04622889778851]]]},"id":"67"},{"type":"Feature","properties":{"id":"68","metrics:area":20450,"metrics:perimeter":748.3705186132725},"geometry":{"type":"Polygon","coordinates":[[[72.95093040059264,19.047120484079773],[72.95074488154367,19.0467571016826],[72.95094038110987,19.046307619357602],[72.95076706133332,19.044950735668817],[72.95096144942471,19.044591571359458],[72.95077371478165,19.044408825790985],[72.95153463232326,19.04432694192957],[72.95150802717876,19.046494582291416],[72.95140750639452,19.046945119673065],[72.95093040059264,19.047120484079773]]]},"id":"68"},{"type":"Feature","properties":{"id":"69","metrics:area":12950,"metrics:perimeter":597.4299764394733},"geometry":{"type":"Polygon","coordinates":[[[72.95017834505472,19.04647981813982],[72.94924300043746,19.04529512967666],[72.9497311968653,19.044216586741932],[72.94992114875116,19.0442186967112],[72.95009224274678,19.045756217109787],[72.95046438601922,19.046392664413418],[72.95017834505472,19.04647981813982]]]},"id":"69"},{"type":"Feature","properties":{"id":"70","metrics:area":70500,"metrics:perimeter":2328.0825025638596},"geometry":{"type":"Polygon","coordinates":[[[72.95472951200165,19.04716262787929],[72.95493717614346,19.045719636518523],[72.95522100090858,19.045813112159742],[72.95532151060691,19.04536257162106],[72.95474943558362,19.04553689449187],[72.9539940487196,19.045167198795777],[72.95457055043035,19.04463160410947],[72.95418732344359,19.04489834897161],[72.95342751092355,19.044889925189615],[72.95352913194996,19.044349067514943],[72.95495488285188,19.044274539775774],[72.95494713636384,19.04490676963048],[72.95513598309287,19.044999192864832],[72.95514483542614,19.044276644377405],[72.9565694805299,19.044292422667986],[72.95665671689683,19.04492570469401],[72.95637068077092,19.045012868575398],[72.95694164718246,19.044928859000763],[72.95750377082548,19.045567397118397],[72.95798086686005,19.04539201461739],[72.95787925903238,19.04593287597658],[72.95730828930412,19.046016888168765],[72.95711391221136,19.046376060238043],[72.95597196899487,19.046544077698464],[72.95560533506155,19.04545604663753],[72.95579971396229,19.045096876327992],[72.955609760377,19.045094772312993],[72.95541759396623,19.0452733052455],[72.95559759051895,19.04608827666911],[72.95530933884937,19.046356075769012],[72.95530491256824,19.046717349976298],[72.9557798011027,19.046722610862457],[72.95577648209593,19.046993566588448],[72.95472951200165,19.04716262787929]]]},"id":"70"},{"type":"Feature","properties":{"id":"71","metrics:area":5100,"metrics:perimeter":343.7595548137414},"geometry":{"type":"Polygon","coordinates":[[[72.95334028698028,19.04425664278121],[72.95344080028066,19.0438061035836],[72.9538218112285,19.04371999711254],[72.95410341779204,19.04399411113168],[72.95467216757123,19.0440907454297],[72.9544800015256,19.044269277417754],[72.95334028698028,19.04425664278121]]]},"id":"71"},{"type":"Feature","properties":{"id":"72","metrics:area":8900,"metrics:perimeter":579.5441518373468},"geometry":{"type":"Polygon","coordinates":[[[72.95181512734774,19.044691377540914],[72.95210670539474,19.0441526289354],[72.95296149002557,19.044162111232456],[72.9528709448474,19.043799784084158],[72.95325084844455,19.043803997278967],[72.95324531080882,19.04425558957765],[72.95286540618558,19.044251376275447],[72.95286319067704,19.044432013145357],[72.95324420326293,19.04434590803455],[72.95323977301672,19.044707181852715],[72.95181512734774,19.044691377540914]]]},"id":"72"},{"type":"Feature","properties":{"id":"73","metrics:area":500,"metrics:perimeter":123.85164807134504},"geometry":{"type":"Polygon","coordinates":[[[72.95609902263685,19.043925889976826],[72.95562635441946,19.043739993461383],[72.95610123458155,19.043745252730716],[72.95609902263685,19.043925889976826]]]},"id":"73"},{"type":"Feature","properties":{"id":"74","metrics:area":3100,"metrics:perimeter":230.24311934831445},"geometry":{"type":"Polygon","coordinates":[[[72.95097031961774,19.04386902473189],[72.95107194750766,19.04332816904246],[72.95135798257297,19.043241013352628],[72.95163625884815,19.043786085809113],[72.95097031961774,19.04386902473189]]]},"id":"74"},{"type":"Feature","properties":{"id":"75","metrics:area":17600,"metrics:perimeter":711.039527916078},"geometry":{"type":"Polygon","coordinates":[[[72.95353688356256,19.04371683818405],[72.95344855198968,19.043173874250606],[72.9543088667684,19.042731757217346],[72.95516253889268,19.042831547221205],[72.95544304023736,19.043195977876298],[72.95601289452867,19.043202289245595],[72.95600847055897,19.04356356373527],[72.95496373560603,19.04355199131373],[72.95468323486553,19.043187559984748],[72.95448885633195,19.04354672917032],[72.95353688356256,19.04371683818405]]]},"id":"75"},{"type":"Feature","properties":{"id":"76","metrics:area":14700,"metrics:perimeter":724.9998569734917},"geometry":{"type":"Polygon","coordinates":[[[72.95201283755631,19.044061256713878],[72.95212221891211,19.0428881713286],[72.95193780903489,19.04243447177156],[72.95231660136977,19.042529005017965],[72.95231216957198,19.04289027869689],[72.9524115765039,19.042530058607433],[72.95307751014136,19.042447113902494],[72.9530719724618,19.042898706218327],[72.95335689864872,19.042901865733786],[72.95335246900808,19.043263139633876],[72.95278150772569,19.043347138475408],[72.95268874766839,19.043165448161677],[72.95239274154385,19.04406547172979],[72.95201283755631,19.044061256713878]]]},"id":"76"},{"type":"Feature","properties":{"id":"77","metrics:area":5400,"metrics:perimeter":282.47887212542764},"geometry":{"type":"Polygon","coordinates":[[[72.95393671474669,19.04209531682694],[72.95384616805835,19.04173298998841],[72.95423049455452,19.04137592658008],[72.95470315441995,19.04156182594584],[72.95460153976578,19.042102684934513],[72.95393671474669,19.04209531682694]]]},"id":"77"},{"type":"Feature","properties":{"id":"78","metrics:area":1300,"metrics:perimeter":148.3130955811703},"geometry":{"type":"Polygon","coordinates":[[[72.94059291178398,19.030384653226],[72.94040743115303,19.030021263679867],[72.9407884138195,19.02993518168152],[72.94078396025577,19.030296453231816],[72.94059291178398,19.030384653226]]]},"id":"78"},{"type":"Feature","properties":{"id":"79","metrics:area":14500,"metrics:perimeter":527.6444128104617},"geometry":{"type":"Polygon","coordinates":[[[72.94048569468067,19.031377090704073],[72.93963989473275,19.030645014300937],[72.93983428569437,19.030285861880444],[72.93955383967788,19.029921412254936],[72.93984096907775,19.02974395487349],[72.94106329641959,19.03075121918409],[72.94077059896058,19.03138026779199],[72.94048569468067,19.031377090704073]]]},"id":"79"},{"type":"Feature","properties":{"id":"80","metrics:area":21150,"metrics:perimeter":599.7861328145715},"geometry":{"type":"Polygon","coordinates":[[[72.93774054364982,19.03062381458837],[72.93708246381976,19.030074484037982],[72.93708580996149,19.029803531003527],[72.93727574394549,19.02980565243763],[72.9372802049695,19.02944438166851],[72.93756622046418,19.029357245678206],[72.93776284377007,19.028817460220665],[72.9381427096845,19.02882170129072],[72.93842092156774,19.029366788158516],[72.9387047075776,19.029460285883477],[72.93870024962905,19.029821556977126],[72.93802544615163,19.030626995788577],[72.93774054364982,19.03062381458837]]]},"id":"80"},{"type":"Feature","properties":{"id":"81","metrics:area":2650,"metrics:perimeter":220.72466916935744},"geometry":{"type":"Polygon","coordinates":[[[72.83890271630844,19.027958142682095],[72.83871513332683,19.02777529643522],[72.83938452411451,19.027421825758125],[72.83947364384818,19.02787449656527],[72.83890271630844,19.027958142682095]]]},"id":"81"},{"type":"Feature","properties":{"id":"82","metrics:area":500,"metrics:perimeter":92.36067977499789},"geometry":{"type":"Polygon","coordinates":[[[72.93967331321423,19.027935479363627],[72.93967665475077,19.027664525823134],[72.93986658661471,19.027666644365063],[72.93986435913497,19.027847280081286],[72.93967331321423,19.027935479363627]]]},"id":"82"},{"type":"Feature","properties":{"id":"83","metrics:area":9900,"metrics:perimeter":615.3837903037921},"geometry":{"type":"Polygon","coordinates":[[[72.83767174501959,19.027672758268093],[72.83739388060013,19.027127551575752],[72.8378675085487,19.02722342214406],[72.83797064920003,19.026592350340906],[72.83853689845446,19.02686995448055],[72.83901753566512,19.026423950240478],[72.83910665414713,19.026876621119182],[72.83862835253606,19.02714200156586],[72.83862484729262,19.02741293741433],[72.83834347429793,19.027138667683797],[72.8380515837284,19.027677204847407],[72.83767174501959,19.027672758268093]]]},"id":"83"},{"type":"Feature","properties":{"id":"84","metrics:area":2950,"metrics:perimeter":224.78385662500455},"geometry":{"type":"Polygon","coordinates":[[[72.93882084737422,19.027745307770495],[72.93892249869852,19.027204460668596],[72.9394900646994,19.02739145356964],[72.93948672291201,19.02766240708621],[72.93882084737422,19.027745307770495]]]},"id":"84"},{"type":"Feature","properties":{"id":"85","metrics:area":650,"metrics:perimeter":103.98345637668169},"geometry":{"type":"Polygon","coordinates":[[[72.94053468843285,19.02740310403132],[72.94044306280067,19.027131091455008],[72.94072795983453,19.02713426792755],[72.94072573335285,19.02731490375236],[72.94053468843285,19.02740310403132]]]},"id":"85"},{"type":"Feature","properties":{"id":"86","metrics:area":4400,"metrics:perimeter":321.62841174465393},"geometry":{"type":"Polygon","coordinates":[[[72.93027406413069,19.019971693017673],[72.93104381418465,19.019167344464183],[72.93142142102715,19.019352232191434],[72.93141806768566,19.019623184560352],[72.93027406413069,19.019971693017673]]]},"id":"86"},{"type":"Feature","properties":{"id":"87","metrics:area":11850,"metrics:perimeter":530.5562959174207},"geometry":{"type":"Polygon","coordinates":[[[72.87441894052724,19.01337596354249],[72.87376230337016,19.01273611866268],[72.87367079551466,19.012464083753283],[72.87386299888607,19.012285640090656],[72.87480679152732,19.012748131791387],[72.87509165207014,19.012751407076497],[72.87509509534075,19.012480464311057],[72.87547376132876,19.01257514488757],[72.8751808669392,19.013204070025427],[72.87441894052724,19.01337596354249]]]},"id":"87"},{"type":"Feature","properties":{"id":"88","metrics:area":3100,"metrics:perimeter":238.58463872116383},"geometry":{"type":"Polygon","coordinates":[[[72.835246550793,19.002262865281704],[72.83544111485398,19.001903840287728],[72.8360131206251,19.001729883970867],[72.83610456117744,19.002001931222683],[72.83591233478026,19.002180332980192],[72.835246550793,19.002262865281704]]]},"id":"88"},{"type":"Feature","properties":{"id":"89","metrics:area":3200,"metrics:perimeter":233.4467364196607},"geometry":{"type":"Polygon","coordinates":[[[72.81763720620378,18.983629584561466],[72.81726335777091,18.983173550540045],[72.81783648674335,18.982909334519146],[72.8179231831468,18.98354263183775],[72.81763720620378,18.983629584561466]]]},"id":"89"},{"type":"Feature","properties":{"id":"90","metrics:area":142450,"metrics:perimeter":1506.4117091302712},"geometry":{"type":"Polygon","coordinates":[[[72.82025890330956,18.98646056170415],[72.81932131280354,18.985546263776456],[72.8189568653548,18.984367742903142],[72.81829350467487,18.984269598215462],[72.81849043076967,18.983729969635252],[72.81896627458393,18.98364525338567],[72.81925813084345,18.983106742470255],[72.8203023966192,18.98311904502329],[72.82068683044459,18.982762272004628],[72.82248821240377,18.98296412671257],[72.82295231356517,18.983782514121035],[72.82293587708634,18.985046874082954],[72.8225514417534,18.98540365165085],[72.82254674445346,18.98576489721351],[72.82206972068398,18.98593993359727],[72.82197008700209,18.986300061575843],[72.82158799647532,18.986476213951324],[72.82025890330956,18.98646056170415]]]},"id":"90"},{"type":"Feature","properties":{"id":"91","metrics:area":7750,"metrics:perimeter":350.93425870506553},"geometry":{"type":"Polygon","coordinates":[[[72.85524870386266,18.982714410837673],[72.85515723826107,18.98244237049812],[72.85544551271803,18.982174730822067],[72.85545013813845,18.98181347725023],[72.85573609863278,18.981726463775285],[72.85611236963564,18.982001803289748],[72.85620268070896,18.98236415673255],[72.85572338023277,18.98271991125731],[72.85524870386266,18.982714410837673]]]},"id":"91"},{"type":"Feature","properties":{"id":"92","metrics:area":800,"metrics:perimeter":124.7213595499958},"geometry":{"type":"Polygon","coordinates":[[[72.95600374022999,18.919448172625035],[72.95600703495272,18.919177213134557],[72.95638446080544,18.919362033120187],[72.95638336276193,18.919452352970833],[72.95600374022999,18.919448172625035]]]},"id":"92"},{"type":"Feature","properties":{"id":"93","metrics:area":600,"metrics:perimeter":114.04918347287665},"geometry":{"type":"Polygon","coordinates":[[[72.95562960998927,18.91899239245565],[72.95534818969239,18.918718296794456],[72.95563400363031,18.91863111320009],[72.95562960998927,18.91899239245565]]]},"id":"93"},{"type":"Feature","properties":{"id":"94","metrics:area":500,"metrics:perimeter":123.85164807134504},"geometry":{"type":"Polygon","coordinates":[[[72.95602350772525,18.917822415555378],[72.95555118105466,18.9176365498756],[72.95602570398901,18.91764177586219],[72.95602350772525,18.917822415555378]]]},"id":"94"},{"type":"Feature","properties":{"id":"95","metrics:area":4250,"metrics:perimeter":290.3753785260081},"geometry":{"type":"Polygon","coordinates":[[[72.94929041115948,18.901759437073967],[72.948820338976,18.90139291972776],[72.94891853673819,18.90112300878503],[72.94929811623967,18.90112719971042],[72.94948350356921,18.90149057342479],[72.94976818890859,18.901493715884687],[72.94976488745661,18.901764674829764],[72.94929041115948,18.901759437073967]]]},"id":"95"},{"type":"Feature","properties":{"id":"96","metrics:area":4200,"metrics:perimeter":276.8831380576221},"geometry":{"type":"Polygon","coordinates":[[[72.94892514206924,18.900581091137255],[72.9487386558524,18.900308036644358],[72.9487452614561,18.899766119010412],[72.94949781119443,18.900316418108105],[72.94949561009005,18.90049705739792],[72.94892514206924,18.900581091137255]]]},"id":"96"},{"type":"Feature","properties":{"id":"97","metrics:area":2400,"metrics:perimeter":212.11102550927978},"geometry":{"type":"Polygon","coordinates":[[[72.80730528742892,18.89507940857343],[72.80731234617258,18.894537540466214],[72.80788164078632,18.89454425816232],[72.80787928850819,18.894724880937463],[72.80730528742892,18.89507940857343]]]},"id":"97"},{"type":"Feature","properties":{"id":"98","metrics:area":2100,"metrics:perimeter":202.93865081226198},"geometry":{"type":"Polygon","coordinates":[[[72.80788164078632,18.89454425816232],[72.80798357961463,18.894003509226437],[72.80845799048556,18.894009105562258],[72.80845563889724,18.894189728417693],[72.80788164078632,18.89454425816232]]]},"id":"98"}]}